NORAD_CAT_ID,OBJECT_NAME,OBJECT_TYPE,EPOCH,MEAN_MOTION,ECCENTRICITY,INCLINATION,RA_OF_ASC_NODE,ARG_OF_PERICENTER,MEAN_ANOMALY,BSTAR,MEAN_MOTION_DOT,MEAN_MOTION_DDOT,TLE_LINE0,TLE_LINE1,TLE_LINE2,SEMIMAJOR_AXIS,PERIOD,APOGEE,PERIGEE,DECAYED
53253.0,STARLINK-4133,PAYLOAD,2023-07-28 04:27:12,15.08831532,0.0001382,53.217,163.5463,105.7267,254.3877,-5.5715e-05,-1.174e-05,0.0,0 STARLINK-4133,1 53253U 22086M   23209.18556154 -.00001174  00000-0 -55715-4 0  9999,2 53253  53.2170 163.5463 0001382 105.7267 254.3877 15.08831532 56810,6917.906,95.438,540.727,538.815,0.0
53253.0,STARLINK-4133,PAYLOAD,2023-07-29 02:42:35,15.08845925,0.0001693,53.2176,159.3808,113.5784,246.5386,9.0756e-06,-1.44e-06,0.0,0 STARLINK-4133,1 53253U 22086M   23210.11291212 -.00000144  00000-0  90756-5 0  9995,2 53253  53.2176 159.3808 0001693 113.5784 246.5386 15.08845925 56772,6917.862,95.437,540.898,538.556,0.0
53253.0,STARLINK-4133,PAYLOAD,2023-07-30 02:33:22,15.0884052,0.0001186,53.2164,154.9188,104.7142,255.3982,8.0873e-05,1e-05,0.0,0 STARLINK-4133,1 53253U 22086M   23211.10651482  .00001000  00000-0  80873-4 0  9993,2 53253  53.2164 154.9188 0001186 104.7142 255.3982 15.08840520 56921,6917.879,95.438,540.564,538.923,0.0
53253.0,STARLINK-4133,PAYLOAD,2023-07-31 05:34:55,15.08846666,0.0001202,53.2164,149.8636,98.6617,261.4511,4.622e-05,4.48e-06,0.0,0 STARLINK-4133,1 53253U 22086M   23212.23259222  .00000448  00000-0  46220-4 0  9997,2 53253  53.2164 149.8636 0001202  98.6617 261.4511 15.08846666 57091,6917.86,95.437,540.557,538.893,0.0
53253.0,STARLINK-4133,PAYLOAD,2023-07-31 13:31:52,15.0883734,0.0001181,53.2171,148.3773,95.6234,264.4892,-1.546e-05,-5.34e-06,0.0,0 STARLINK-4133,1 53253U 22086M   23212.56379979 -.00000534  00000-0 -15460-4 0  9995,2 53253  53.2171 148.3773 0001181  95.6234 264.4892 15.08837340 57143,6917.889,95.438,540.571,538.937,0.0
53253.0,STARLINK-4133,PAYLOAD,2023-08-01 05:25:43,15.08842913,0.0001264,53.217,145.4024,96.3005,263.8131,9.3021e-06,-1.4e-06,0.0,0 STARLINK-4133,1 53253U 22086M   23213.22619607 -.00000140  00000-0  93021-5 0  9996,2 53253  53.2170 145.4024 0001264  96.3005 263.8131 15.08842913 57247,6917.871,95.437,540.611,538.862,0.0
53253.0,STARLINK-4133,PAYLOAD,2023-08-02 11:38:02,15.08843357,0.0001228,53.2173,139.7513,98.5669,261.5463,-2.2978e-06,-3.24e-06,0.0,0 STARLINK-4133,1 53253U 22086M   23214.48475659 -.00000324  00000-0 -22978-5 0  9990,2 53253  53.2173 139.7513 0001228  98.5669 261.5463 15.08843357 57436,6917.87,95.437,540.585,538.886,0.0
53253.0,STARLINK-4133,PAYLOAD,2023-08-04 01:47:19,15.08831817,0.0001066,53.2166,132.615,84.2724,275.839,-5.6365e-05,-1.184e-05,0.0,0 STARLINK-4133,1 53253U 22086M   23216.07453020 -.00001184  00000-0 -56365-4 0  9996,2 53253  53.2166 132.6150 0001066  84.2724 275.8390 15.08831817 57672,6917.905,95.438,540.508,539.033,0.0
53253.0,STARLINK-4133,PAYLOAD,2023-08-05 01:38:05,15.08849752,9.5e-05,53.2163,128.1578,89.889,270.2211,3.2256e-05,2.26e-06,0.0,0 STARLINK-4133,1 53253U 22086M   23217.06811933  .00000226  00000-0  32256-4 0  9994,2 53253  53.2163 128.1578 0000950  89.8890 270.2211 15.08849752 57824,6917.851,95.437,540.373,539.058,0.0
53253.0,STARLINK-4133,PAYLOAD,2023-08-05 03:13:28,15.08854154,0.0001086,53.217,127.8591,100.9459,259.1656,7.7239e-05,9.42e-06,0.0,0 STARLINK-4133,1 53253U 22086M   23217.13435468  .00000942  00000-0  77239-4 0  9992,2 53253  53.2170 127.8591 0001086 100.9459 259.1656 15.08854154 57832,6917.837,95.437,540.453,538.951,0.0
53253.0,STARLINK-4133,PAYLOAD,2023-08-06 17:22:46,15.08825795,0.0002121,53.217,120.7239,76.0083,284.1145,-5.5179e-06,-3.76e-06,0.0,0 STARLINK-4133,1 53253U 22086M   23218.72414373 -.00000376  00000-0 -55179-5 0  9993,2 53253  53.2170 120.7239 0002121  76.0083 284.1145 15.08825795 58077,6917.924,95.438,541.256,538.322,0.0
53253.0,STARLINK-4133,PAYLOAD,2023-08-07 10:52:00,15.08824755,0.0001119,53.2161,117.4529,85.1448,274.9672,-0.00017277,-3.035e-05,0.0,0 STARLINK-4133,1 53253U 22086M   23219.45277941 -.00003035  00000-0 -17277-3 0  9992,2 53253  53.2161 117.4529 0001119  85.1448 274.9672 15.08824755 58183,6917.927,95.439,540.566,539.018,0.0
53253.0,STARLINK-4133,PAYLOAD,2023-08-07 23:35:04,15.0884298,0.0001032,53.2157,115.0736,79.7321,280.3788,8.7568e-05,1.106e-05,0.0,0 STARLINK-4133,1 53253U 22086M   23219.98269482  .00001106  00000-0  87568-4 0  9997,2 53253  53.2157 115.0736 0001032  79.7321 280.3788 15.08842980 58263,6917.871,95.437,540.45,539.022,0.0
53253.0,STARLINK-4133,PAYLOAD,2023-08-09 02:36:37,15.08888747,0.0001048,53.2154,110.0181,71.4401,288.6705,0.0012925,0.00020369,0.0,0 STARLINK-4133,1 53253U 22086M   23221.10876540  .00020369  00000-0  12925-2 0  9998,2 53253  53.2154 110.0181 0001048  71.4401 288.6705 15.08888747 58434,6917.731,95.434,540.321,538.871,0.0
53253.0,STARLINK-4133,PAYLOAD,2023-08-09 23:16:38,15.08851503,8.15e-05,53.2157,106.1542,60.111,299.9963,0.0002106,3.067e-05,0.0,0 STARLINK-4133,1 53253U 22086M   23221.96988487  .00003067  00000-0  21060-3 0  9993,2 53253  53.2157 106.1542 0000815  60.1110 299.9963 15.08851503 58562,6917.845,95.437,540.274,539.146,0.0
53253.0,STARLINK-4133,PAYLOAD,2023-08-10 23:07:25,15.08835732,0.0001088,53.2164,101.6923,98.2734,261.8382,0.00013268,1.824e-05,0.0,0 STARLINK-4133,1 53253U 22086M   23222.96348876  .00001824  00000-0  13268-3 0  9996,2 53253  53.2164 101.6923 0001088  98.2734 261.8382 15.08835732 58716,6917.893,95.438,540.511,539.006,0.0
53253.0,STARLINK-4133,PAYLOAD,2023-08-12 02:08:58,15.0884422,0.0001122,53.2166,96.6379,98.5466,261.5653,0.00019119,2.757e-05,0.0,0 STARLINK-4133,1 53253U 22086M   23224.08956847  .00002757  00000-0  19119-3 0  9991,2 53253  53.2166  96.6379 0001122  98.5466 261.5653 15.08844220 58888,6917.867,95.437,540.509,538.956,0.0
53253.0,STARLINK-4133,PAYLOAD,2023-08-12 18:02:50,15.08839969,0.0001048,53.2161,93.6636,92.1129,267.9983,0.00012599,1.718e-05,0.0,0 STARLINK-4133,1 53253U 22086M   23224.75197072  .00001718  00000-0  12599-3 0  9993,2 53253  53.2161  93.6636 0001048  92.1129 267.9983 15.08839969 58980,6917.88,95.438,540.47,539.02,0.0
53253.0,STARLINK-4133,PAYLOAD,2023-08-13 00:24:22,15.08850042,0.0001046,53.2159,92.4741,87.034,273.0772,0.00026897,3.997e-05,0.0,0 STARLINK-4133,1 53253U 22086M   23225.01692668  .00003997  00000-0  26897-3 0  9991,2 53253  53.2159  92.4741 0001046  87.0340 273.0772 15.08850042 59022,6917.85,95.437,540.438,538.991,0.0
53253.0,STARLINK-4133,PAYLOAD,2023-08-14 00:15:09,15.08842977,0.0001189,53.2161,88.0131,92.2489,267.8639,8.3057e-05,1.034e-05,0.0,0 STARLINK-4133,1 53253U 22086M   23226.01053058  .00001034  00000-0  83057-4 0  9998,2 53253  53.2161  88.0131 0001189  92.2489 267.8639 15.08842977 59176,6917.871,95.437,540.559,538.914,0.0
53253.0,STARLINK-4133,PAYLOAD,2023-08-15 14:24:25,15.08841331,0.0001243,53.2165,80.8737,92.8113,267.3021,0.00016024,2.263e-05,0.0,0 STARLINK-4133,1 53253U 22086M   23227.60029400  .00002263  00000-0  16024-3 0  9992,2 53253  53.2165  80.8737 0001243  92.8113 267.3021 15.08841331 59413,6917.876,95.437,540.601,538.881,0.0
53253.0,STARLINK-4133,PAYLOAD,2023-08-15 23:56:43,15.08850767,0.0001161,53.216,79.0917,89.5526,270.5599,0.00023975,3.531e-05,0.0,0 STARLINK-4133,1 53253U 22086M   23227.99772892  .00003531  00000-0  23975-3 0  9996,2 53253  53.2160  79.0917 0001161  89.5526 270.5599 15.08850767 59473,6917.847,95.437,540.516,538.909,0.0
53253.0,STARLINK-4133,PAYLOAD,2023-08-16 23:47:31,15.08837646,8.63e-05,53.2142,74.6353,69.1479,290.9605,1.2049e-05,-9.6e-07,0.0,0 STARLINK-4133,1 53253U 22086M   23228.99133597 -.00000096  00000-0  12049-4 0  9995,2 53253  53.2142  74.6353 0000863  69.1479 290.9605 15.08837646 59629,6917.888,95.438,540.35,539.156,0.0
53253.0,STARLINK-4133,PAYLOAD,2023-08-17 20:27:33,15.08832618,0.0001276,53.2172,70.7661,92.7024,267.4114,-3.7611e-05,-8.86e-06,0.0,0 STARLINK-4133,1 53253U 22086M   23229.85246908 -.00000886  00000-0 -37611-4 0  9992,2 53253  53.2172  70.7661 0001276  92.7024 267.4114 15.08832618 59750,6917.903,95.438,540.651,538.885,0.0
53253.0,STARLINK-4133,PAYLOAD,2023-08-18 05:59:51,15.08837686,0.0001235,53.2163,68.9818,93.0666,267.0467,7.1466e-05,8.5e-06,0.0,0 STARLINK-4133,1 53253U 22086M   23230.24990531  .00000850  00000-0  71466-4 0  9990,2 53253  53.2163  68.9818 0001235  93.0666 267.0467 15.08837686 59818,6917.887,95.438,540.607,538.898,0.0
53253.0,STARLINK-4133,PAYLOAD,2023-08-18 20:18:19,15.08856536,0.0001253,53.2161,66.3055,95.4629,264.6506,0.0004299,6.564e-05,0.0,0 STARLINK-4133,1 53253U 22086M   23230.84606251  .00006564  00000-0  42990-3 0  9996,2 53253  53.2161  66.3055 0001253  95.4629 264.6506 15.08856536 59908,6917.83,95.437,540.562,538.828,0.0
53253.0,STARLINK-4133,PAYLOAD,2023-08-19 12:12:11,15.0885141,0.0001867,53.216,63.3324,86.4169,273.7037,0.0003059,4.585e-05,0.0,0 STARLINK-4133,1 53253U 22086M   23231.50846457  .00004585  00000-0  30590-3 0  9998,2 53253  53.2160  63.3324 0001867  86.4169 273.7037 15.08851410 60002,6917.846,95.437,541.002,538.419,0.0
53253.0,STARLINK-4133,PAYLOAD,2023-08-19 21:44:29,15.08845547,0.0001654,53.2144,61.5477,90.3987,269.7195,1.202e-05,-9.7e-07,0.0,0 STARLINK-4133,1 53253U 22086M   23231.90590267 -.00000097  00000-0  12020-4 0  9991,2 53253  53.2144  61.5477 0001654  90.3987 269.7195 15.08845547 60069,6917.863,95.437,540.873,538.584,0.0
53253.0,STARLINK-4133,PAYLOAD,2023-08-20 23:10:39,15.08857143,0.0001287,53.2167,56.7894,89.0192,271.0948,0.00012848,1.758e-05,0.0,0 STARLINK-4133,1 53253U 22086M   23232.96573341  .00001758  00000-0  12848-3 0  9993,2 53253  53.2167  56.7894 0001287  89.0192 271.0948 15.08857143 60223,6917.828,95.436,540.583,538.803,0.0
53253.0,STARLINK-4133,PAYLOAD,2023-08-21 11:53:45,15.08839422,0.0001513,53.2177,54.412,83.5161,276.6003,-1.7411e-05,-5.65e-06,0.0,0 STARLINK-4133,1 53253U 22086M   23233.49566296 -.00000565  00000-0 -17411-4 0  9992,2 53253  53.2177  54.4120 0001513  83.5161 276.6003 15.08839422 60300,6917.882,95.438,540.794,538.7,0.0
